NORAD_CAT_ID,OBJECT_NAME,OBJECT_TYPE,EPOCH,MEAN_MOTION,ECCENTRICITY,INCLINATION,RA_OF_ASC_NODE,ARG_OF_PERICENTER,MEAN_ANOMALY,BSTAR,MEAN_MOTION_DOT,MEAN_MOTION_DDOT,TLE_LINE0,TLE_LINE1,TLE_LINE2,SEMIMAJOR_AXIS,PERIOD,APOGEE,PERIGEE,DECAYED
54103.0,STARLINK-5200,PAYLOAD,2023-10-03 04:24:29,15.08837259,0.0001438,53.2165,342.565,86.5195,273.5962,0.00018202,2.61e-05,0.0,0 STARLINK-5200,1 54103U 22136BE  23276.18368025  .00002610  00000-0  18202-3 0  9995,2 54103  53.2165 342.5650 0001438  86.5195 273.5962 15.08837259 53608,6917.889,95.438,540.749,538.759,0.0
54103.0,STARLINK-5200,PAYLOAD,2023-10-03 10:46:02,15.0884678,0.0001408,53.2154,341.3756,83.5965,276.5187,0.00049331,7.573e-05,0.0,0 STARLINK-5200,1 54103U 22136BE  23276.44863876  .00007573  00000-0  49331-3 0  9998,2 54103  53.2154 341.3756 0001408  83.5965 276.5187 15.08846780 53172,6917.86,95.437,540.699,538.751,0.0
54103.0,STARLINK-5200,PAYLOAD,2023-10-04 04:15:17,15.08839936,0.000145,53.2163,338.1052,73.371,286.7441,0.000262,3.884e-05,0.0,0 STARLINK-5200,1 54103U 22136BE  23277.17728256  .00003884  00000-0  26200-3 0  9992,2 54103  53.2163 338.1052 0001450  73.3710 286.7441 15.08839936 53752,6917.881,95.438,540.749,538.742,0.0
54103.0,STARLINK-5200,PAYLOAD,2023-10-04 10:36:49,15.08846107,0.0001503,53.2166,336.9159,87.1501,272.9663,0.00031769,4.773e-05,0.0,0 STARLINK-5200,1 54103U 22136BE  23277.44223905  .00004773  00000-0  31769-3 0  9997,2 54103  53.2166 336.9159 0001503  87.1501 272.9663 15.08846107 53323,6917.862,95.437,540.766,538.687,0.0
54103.0,STARLINK-5200,PAYLOAD,2023-10-05 08:52:13,15.08845709,0.0001639,53.2172,332.7521,83.5783,276.5396,0.00015898,2.243e-05,0.0,0 STARLINK-5200,1 54103U 22136BE  23278.36959947  .00002243  00000-0  15898-3 0  9996,2 54103  53.2172 332.7521 0001639  83.5783 276.5396 15.08845709 53936,6917.863,95.437,540.862,538.594,0.0
54103.0,STARLINK-5200,PAYLOAD,2023-10-05 13:38:22,15.08851995,0.0001534,53.2166,331.8586,89.6249,270.4919,0.00035352,5.345e-05,0.0,0 STARLINK-5200,1 54103U 22136BE  23278.56831658  .00005345  00000-0  35352-3 0  9999,2 54103  53.2166 331.8586 0001534  89.6249 270.4919 15.08851995 53497,6917.844,95.437,540.77,538.648,0.0
54103.0,STARLINK-5200,PAYLOAD,2023-10-06 10:18:23,15.08844697,0.0001623,53.2168,327.9951,89.6657,270.4521,0.00029326,4.383e-05,0.0,0 STARLINK-5200,1 54103U 22136BE  23279.42944102  .00004383  00000-0  29326-3 0  9999,2 54103  53.2168 327.9951 0001623  89.6657 270.4521 15.08844697 54090,6917.866,95.437,540.854,538.608,0.0
54103.0,STARLINK-5200,PAYLOAD,2023-10-06 19:50:42,15.08838869,0.000156,53.2167,326.2104,86.0658,274.0512,0.00020656,3.001e-05,0.0,0 STARLINK-5200,1 54103U 22136BE  23279.82688402  .00003001  00000-0  20656-3 0  9994,2 54103  53.2167 326.2104 0001560  86.0658 274.0512 15.08838869 54154,6917.884,95.438,540.828,538.67,0.0
54103.0,STARLINK-5200,PAYLOAD,2023-10-07 10:09:10,15.08842236,0.0001644,53.2174,323.5358,87.9027,272.2154,0.00018058,2.587e-05,0.0,0 STARLINK-5200,1 54103U 22136BE  23280.42304371  .00002587  00000-0  18058-3 0  9993,2 54103  53.2174 323.5358 0001644  87.9027 272.2154 15.08842236 53778,6917.874,95.437,540.876,538.601,0.0
54103.0,STARLINK-5200,PAYLOAD,2023-10-08 03:38:25,15.08837732,0.0001664,53.2173,320.2642,92.0356,268.0827,4.7206e-05,4.63e-06,0.0,0 STARLINK-5200,1 54103U 22136BE  23281.15168641  .00000463  00000-0  47206-4 0  9991,2 54103  53.2173 320.2642 0001664  92.0356 268.0827 15.08837732 54351,6917.887,95.438,540.903,538.601,0.0
54103.0,STARLINK-5200,PAYLOAD,2023-10-08 11:35:21,15.08843362,0.0001683,53.2176,318.7778,93.7807,266.3377,0.00011565,1.553e-05,0.0,0 STARLINK-5200,1 54103U 22136BE  23281.48288541  .00001553  00000-0  11565-3 0  9998,2 54103  53.2176 318.7778 0001683  93.7807 266.3377 15.08843362 53936,6917.87,95.437,540.899,538.571,0.0
54103.0,STARLINK-5200,PAYLOAD,2023-10-08 19:32:17,15.08840314,0.0001701,53.2176,317.291,92.651,267.4677,4.6902e-05,4.58e-06,0.0,0 STARLINK-5200,1 54103U 22136BE  23281.81408734  .00000458  00000-0  46902-4 0  9990,2 54103  53.2176 317.2910 0001701  92.6510 267.4677 15.08840314 53982,6917.879,95.438,540.921,538.568,0.0
54103.0,STARLINK-5200,PAYLOAD,2023-10-09 08:15:21,15.0884964,0.0001757,53.2174,314.9091,88.2845,271.8348,0.0001256,1.712e-05,0.0,0 STARLINK-5200,1 54103U 22136BE  23282.34400358  .00001712  00000-0  12560-3 0  9999,2 54103  53.2174 314.9091 0001757  88.2845 271.8348 15.08849640 54534,6917.851,95.437,540.931,538.5,0.0
54103.0,STARLINK-5200,PAYLOAD,2023-10-09 11:26:08,15.08849589,0.0001825,53.2172,314.3137,90.2339,269.8862,0.00026951,4.005e-05,0.0,0 STARLINK-5200,1 54103U 22136BE  23282.47648383  .00004005  00000-0  26951-3 0  9992,2 54103  53.2172 314.3137 0001825  90.2339 269.8862 15.08849589 54084,6917.851,95.437,540.979,538.454,0.0
54103.0,STARLINK-5200,PAYLOAD,2023-10-10 09:41:32,15.08845805,0.0001899,53.2174,310.1514,85.6143,274.5066,0.00017163,2.445e-05,0.0,0 STARLINK-5200,1 54103U 22136BE  23283.40384637  .00002445  00000-0  17163-3 0  9996,2 54103  53.2174 310.1514 0001899  85.6143 274.5066 15.08845805 54694,6917.863,95.437,541.041,538.414,0.0
54103.0,STARLINK-5200,PAYLOAD,2023-10-10 19:13:51,15.08826358,0.0001944,53.2182,308.3647,92.3438,267.7776,-0.00014088,-2.529e-05,0.0,0 STARLINK-5200,1 54103U 22136BE  23283.80129503 -.00002529  00000-0 -14088-3 0  9997,2 54103  53.2182 308.3647 0001944  92.3438 267.7776 15.08826358 54281,6917.922,95.438,541.132,538.442,0.0
54103.0,STARLINK-5200,PAYLOAD,2023-10-11 01:35:24,15.08828519,0.0001504,53.2183,307.1763,91.9695,268.1469,-0.00013358,-2.413e-05,0.0,0 STARLINK-5200,1 54103U 22136BE  23284.06625390 -.00002413  00000-0 -13358-3 0  9992,2 54103  53.2183 307.1763 0001504  91.9695 268.1469 15.08828519 54791,6917.915,95.438,540.821,538.74,0.0
54103.0,STARLINK-5200,PAYLOAD,2023-10-11 07:56:56,15.08843812,0.00018,53.2166,305.9876,92.5716,267.5483,3.0829e-05,2.03e-06,0.0,0 STARLINK-5200,1 54103U 22136BE  23284.33120714  .00000203  00000-0  30829-4 0  9998,2 54103  53.2166 305.9876 0001800  92.5716 267.5483 15.08843812 54830,6917.869,95.437,540.979,538.489,0.0
54103.0,STARLINK-5200,PAYLOAD,2023-10-12 10:58:29,15.08847922,0.0001844,53.2164,300.9325,93.6677,266.4526,0.00024735,3.652e-05,0.0,0 STARLINK-5200,1 54103U 22136BE  23285.45728870  .00003652  00000-0  24735-3 0  9998,2 54103  53.2164 300.9325 0001844  93.6677 266.4526 15.08847922 54537,6917.856,95.437,540.997,538.446,0.0
54103.0,STARLINK-5200,PAYLOAD,2023-10-13 04:27:44,15.08838465,0.0001805,53.2171,297.6582,101.7883,258.3312,0.00014606,2.037e-05,0.0,0 STARLINK-5200,1 54103U 22136BE  23286.18593354  .00002037  00000-0  14606-3 0  9998,2 54103  53.2171 297.6582 0001805 101.7883 258.3312 15.08838465 55119,6917.885,95.438,540.999,538.501,0.0
54103.0,STARLINK-5200,PAYLOAD,2023-10-13 07:38:30,15.08843267,0.0001752,53.2157,297.0667,88.7049,271.4144,0.00019401,2.801e-05,0.0,0 STARLINK-5200,1 54103U 22136BE  23286.31841212  .00002801  00000-0  19401-3 0  9999,2 54103  53.2157 297.0667 0001752  88.7049 271.4144 15.08843267 54664,6917.87,95.437,540.947,538.523,0.0
54103.0,STARLINK-5200,PAYLOAD,2023-10-14 10:40:03,15.08857355,0.0001862,53.2163,292.0113,88.5058,271.6147,0.00036924,5.596e-05,0.0,0 STARLINK-5200,1 54103U 22136BE  23287.44448496  .00005596  00000-0  36924-3 0  9994,2 54103  53.2163 292.0113 0001862  88.5058 271.6147 15.08857355 55302,6917.827,95.436,540.98,538.404,0.0
54103.0,STARLINK-5200,PAYLOAD,2023-10-15 04:09:19,15.08821014,0.0001536,53.2169,288.7421,91.6602,268.4566,-0.0002706,-4.59e-05,0.0,0 STARLINK-5200,1 54103U 22136BE  23288.17314173 -.00004590  00000-0 -27060-3 0  9995,2 54103  53.2169 288.7421 0001536  91.6602 268.4566 15.08821014 55414,6917.938,95.439,540.866,538.741,0.0
54103.0,STARLINK-5200,PAYLOAD,2023-10-15 07:20:05,15.08825822,0.0001566,53.2163,288.1469,91.7514,268.3657,-0.00013114,-2.374e-05,0.0,0 STARLINK-5200,1 54103U 22136BE  23288.30562174 -.00002374  00000-0 -13114-3 0  9999,2 54103  53.2163 288.1469 0001566  91.7514 268.3657 15.08825822 54960,6917.924,95.438,540.872,538.705,0.0
54103.0,STARLINK-5200,PAYLOAD,2023-10-15 16:52:24,15.08829131,0.0001775,53.2182,286.3637,99.5606,260.5586,8.1561e-05,1.01e-05,0.0,0 STARLINK-5200,1 54103U 22136BE  23288.70306374  .00001010  00000-0  81561-4 0  9997,2 54103  53.2182 286.3637 0001775  99.5606 260.5586 15.08829131 55499,6917.914,95.438,541.007,538.551,0.0
54103.0,STARLINK-5200,PAYLOAD,2023-10-16 07:10:52,15.08862211,0.0001387,53.2159,283.6857,96.3729,263.7421,0.0014817,0.00023386,0.0,0 STARLINK-5200,1 54103U 22136BE  23289.29922149  .00023386  00000-0  14817-2 0  9994,2 54103  53.2159 283.6857 0001387  96.3729 263.7421 15.08862211 55586,6917.812,95.436,540.637,538.718,0.0
54103.0,STARLINK-5200,PAYLOAD,2023-10-16 08:46:15,15.08866031,0.0001402,53.2157,283.3887,95.3592,264.756,0.0015908,0.00025138,0.0,0 STARLINK-5200,1 54103U 22136BE  23289.36546052  .00025138  00000-0  15908-2 0  9996,2 54103  53.2157 283.3887 0001402  95.3592 264.7560 15.08866031 55128,6917.801,95.436,540.636,538.696,0.0
54103.0,STARLINK-5200,PAYLOAD,2023-10-17 07:01:39,15.08851465,0.0001397,53.2157,279.2245,94.6472,265.468,0.0003091,4.636e-05,0.0,0 STARLINK-5200,1 54103U 22136BE  23290.29281743  .00004636  00000-0  30910-3 0  9994,2 54103  53.2157 279.2245 0001397  94.6472 265.4680 15.08851465 55735,6917.845,95.437,540.677,538.744,0.0
54103.0,STARLINK-5200,PAYLOAD,2023-10-17 22:55:30,15.0884351,0.0001444,53.2164,276.2526,90.2805,269.8353,0.00018349,2.634e-05,0.0,0 STARLINK-5200,1 54103U 22136BE  23290.95521832  .00002634  00000-0  18349-3 0  9991,2 54103  53.2164 276.2526 0001444  90.2805 269.8353 15.08843510 55363,6917.87,95.437,540.734,538.736,0.0
54103.0,STARLINK-5200,PAYLOAD,2023-10-18 05:17:03,15.08847756,0.0001301,53.2157,275.0622,97.7929,262.3211,0.0001618,2.289e-05,0.0,0 STARLINK-5200,1 54103U 22136BE  23291.22017752  .00002289  00000-0  16180-3 0  9990,2 54103  53.2157 275.0622 0001301  97.7929 262.3211 15.08847756 55873,6917.857,95.437,540.622,538.822,0.0
